ORBCOMM FM05            
1 25117U 97084F   25078.31738458  .00005713  00000+0  16463-2 0  9992
2 25117  45.0137  79.4276 0000528 256.0517 104.0276 14.45437404427609
ORBCOMM FM03            
1 25158U 98007B   25078.57790351  .00003082  00000+0  11324-2 0  9999
2 25158 107.9682 311.5682 0044382  43.7539 316.7105 14.34157287411195
ORBCOMM FM04            
1 25159U 98007C   25078.57788105  .00003273  00000+0  11959-2 0  9990
2 25159 107.9661 314.7286 0040295  40.8481 319.5668 14.34417831411370
ORBCOMM FM18            
1 25414U 98046B   25078.75488526  .00004961  00000+0  16648-2 0  9996
2 25414  44.9920 239.3677 0005775 188.9205 171.1541 14.38161199391376
ORBCOMM FM19            
1 25415U 98046C   25078.78525406  .00005239  00000+0  17625-2 0  9994
2 25415  44.9931 241.0820 0004532 182.7044 312.5522 14.37966870391336
